0 SL-12 DEB
1 18767U 85042K   13280.44885777  .00000744  00000-0  56699-3 0  6385
2 18767 066.5916 277.9822 0145579 086.9704 072.9900 13.94215796302971
0 SL-12 DEB
1 18767U 85042K   13283.09481448  .00000927  00000-0  69271-3 0  6390
2 18767 066.5916 271.4275 0145669 085.1214 033.6320 13.94222483303342
0 SL-12 DEB
1 18767U 85042K   13285.24492586  .00000919  00000-0  68739-3 0  6405
2 18767 066.5917 266.1009 0145751 083.6191 025.5644 13.94226579303640
0 SL-12 DEB
1 18767U 85042K   13287.82109618  .00001180  00000-0  86645-3 0  6410
2 18767 066.5921 259.7190 0145872 081.8312 356.0201 13.94233288304000
0 SL-12 DEB
1 18767U 85042K   13289.97818061  .00001253  00000-0  91679-3 0  6422
2 18767 066.5924 254.3755 0145981 080.3326 023.0326 13.94238661304303
0 SL-12 DEB
1 18767U 85042K   13291.98834487  .00001335  00000-0  97305-3 0  6430
2 18767 066.5925 249.3959 0146107 078.9315 032.6525 13.94243303304582
0 SL-12 DEB
1 18767U 85042K   13294.21091083  .00001388  00000-0  10094-2 0  6444
2 18767 066.5924 243.8904 0146253 077.3858 028.4200 13.94250027304895
